Site Name,Site Type,Street Address,City,State,Zip Code,Mapped Location
Beaman Nature Center,Regional Community Center,5911 Old Hickory Blvd,Nashville,TN,37015,"5911 Old Hickory Blvd
Nashville, TN 37015
"
Southeast Community Center,Regional Community Center,5260 Hickory Hollow Parkway,Nashville,TN,37213,"5260 Hickory Hollow Parkway
Nashville, TN 37213
"
Ford Ice Center,Public Gathering,5264 Hickory Hollow Pl,Nashville,TN,37013,"5264 Hickory Hollow Pl
Nashville, TN 37013
"
Looby Library,Library,2301 Rosa L. Parks Boulevard,Nashville,TN,37228,"2301 Rosa L. Parks Boulevard
Nashville, TN 37228
(36.193625, -86.808126)"
South Inglewood Community Center,Regional Community Center,1625 Rebecca Street,Nashville,TN,37216,"1625 Rebecca Street
Nashville, TN 37216
(36.195423, -86.727333)"
Church Street Park,Public Gathering,600 Church St,Nashville,TN,37219,"600 Church St
Nashville, TN 37219
(36.162487, -86.781724)"
Southeast Library ,Library,5260 Hickory Hollow Parkway,Antioch,TN,37013,"5260 Hickory Hollow Parkway
Antioch, TN 37013
(36.048391, -86.657029)"
Hadley Park Library,Library,1039 28th Avenue North,Nashville,TN,37208,"1039 28th Avenue North
Nashville, TN 37208
(36.166888, -86.820526)"
Hartman Community Center,Regional Community Center,2801 Tucker Road,Nashville,TN,37218,"2801 Tucker Road
Nashville, TN 37218
(36.210169, -86.823735)"
Madison Community Center,Regional Community Center,510 Cumberland Avenue,Madison,TN,37115,"510 Cumberland Avenue
Madison, TN 37115
(36.267037, -86.702334)"
Donelson Library,Library,2315 Lebanon Road,Nashville,TN,37214,"2315 Lebanon Road
Nashville, TN 37214
(36.168936, -86.683548)"
Shelby Bottoms Nature Center,Regional Community Center,1900 Davidson St.,Nashville,TN,37206,"1900 Davidson St.
Nashville, TN 37206
(36.164899, -86.734435)"
Goodlettsville Library,Library,205 Rivergate Parkway,Goodlettsville,TN,37072,"205 Rivergate Parkway
Goodlettsville, TN 37072
(36.314643, -86.709932)"
Parkway Towers,Pubilc Gathering,404 James Robertson Parkway,Nashville,TN,37219,"404 James Robertson Parkway
Nashville, TN 37219
(36.167258, -86.780735)"
Parkwood Community Center,Regional Community Center,3220 Vailview Dr.,Nashville,TN,37207,"3220 Vailview Dr.
Nashville, TN 37207
(36.235931, -86.772116)"
Morgan Community Center ,Regional Community Center,411 Hume Street,Nashville,TN,37208,"411 Hume Street
Nashville, TN 37208
(36.180857, -86.790881)"
Bellevue Library ,Library,720 Baugh Road ,Nashville,TN,37221,"720 Baugh Road
Nashville, TN 37221
(36.069075, -86.93676)"
East Community Center,Regional Community Center,700 Woodland Street,Nashville,TN,37206,"700 Woodland Street
Nashville, TN 37206
(36.17332, -86.760862)"
Bellevue Community Center,Regional Community Center,656 Colice Jeanne Road,Nashville,TN,37221,"656 Colice Jeanne Road
Nashville, TN 37221
(36.072144, -86.934617)"
Madison Library,Library,610 Gallatin Pike South,Madison,TN,37115,"610 Gallatin Pike South
Madison, TN 37115
(36.257054, -86.714041)"
Parthenon,Public Gathering,2500 West End Ave,Nashville,TN,37203,"2500 West End Ave
Nashville, TN 37203
(36.146893, -86.808533)"
Bordeaux Library,Library,4000 Clarksville Pike,Nashville,TN,37218,"4000 Clarksville Pike
Nashville, TN 37218
(36.211684, -86.838746)"
Public Works Admin Office,Public Gathering,750 South 5th Street,Nashville,TN,37209,"750 South 5th Street
Nashville, TN 37209
(36.164702, -86.760601)"
Water Services Customer Service Center,Public Gathering,"1700 Third Avenue, North",Nashville,TN,37208,"1700 Third Avenue, North
Nashville, TN 37208
(36.183295, -86.790015)"
West Riverfront  Park,Public Gathering,310 1st Ave South,Nashville,TN,37201,"310 1st Ave South
Nashville, TN 37201
(36.159082, -86.772376)"
John Henry Hale  ,Public Gathering,1433 Jo Johnston,Nashville,TN,37203,"1433 Jo Johnston
Nashville, TN 37203
(36.162563, -86.797091)"
Central Police Precinct,Public Gathering,601 Korean Veterans Blvd,Nashville,TN,37203,"601 Korean Veterans Blvd
Nashville, TN 37203
(36.155688, -86.777522)"
Andrew Jackson Courts,Public Gathering,1457 Jackson Street,Nashville,TN,37208,"1457 Jackson Street
Nashville, TN 37208
(36.167769, -86.800415)"
Parks Plaza Building ,Public Gathering,2565 Park Plaza,Nashville,TN,37203,"2565 Park Plaza
Nashville, TN 37203
(36.147753, -86.820322)"
East Library,Library,206 Gallatin Road,Nashville,TN,37206,"206 Gallatin Road
Nashville, TN 37206
(36.179118, -86.750439)"
Cheatham Place  ,Public Gathering,1564 9th Ave North,Nashville,TN,37208,"1564 9th Ave North
Nashville, TN 37208
(36.178322, -86.798479)"
Kirkpatrick Community Center,Regional Community Center,620 South 9th Street,Nashville,TN,37206,"620 South 9th Street
Nashville, TN 37206
(36.168546, -86.753074)"
Bells Bend Nature Center,Regional Community Center,4187 Old Hickory Blvd,Nashville,TN,37218,"4187 Old Hickory Blvd
Nashville, TN 37218
(36.154631, -86.920333)"
Lentz Public Health Center,Public Gathering,2500 Charlotte Ave,Nashville,TN,37209,"2500 Charlotte Ave
Nashville, TN 37209
(36.154951, -86.813399)"
County Clerk Green Hills Office,Public Gathering,4009 Hillsboro Pike,Nashville,TN,37215,"4009 Hillsboro Pike
Nashville, TN 37215
(36.10395, -86.815454)"
West Police Precinct - Community Room,Public Gathering,5500 Charlotte Pike,Nashville,TN,37209,"5500 Charlotte Pike
Nashville, TN 37209
(36.150806, -86.855196)"
Howard Office Building,Public Gathering,"700 Second Avenue, South",Nashville,TN,37210,"700 Second Avenue, South
Nashville, TN 37210
(36.153257, -86.769585)"
East Police Precinct - Community Room,Public Gathering,936 E. Trinity Lane,Nashville,TN,37207,"936 E. Trinity Lane
Nashville, TN 37207
(36.204518, -86.748091)"
Lindsley Hall,Public Gathering,"730 Second Ave, South",Nashville,TN,37210,"730 Second Ave, South
Nashville, TN 37210
(36.153874, -86.769979)"
Old Hickory Library,Library,1010 Jones Street,Old Hickory,TN,37138,"1010 Jones Street
Old Hickory, TN 37138
(36.260014, -86.645958)"
Water Services Administration Building,Pubilc Gathering,1600 2nd Ave North,Nashville,TN,37208,"1600 2nd Ave North
Nashville, TN 37208
(36.18683, -86.787665)"
Sevier Park Community Center,Regional Community Center,3021 Lealand Ln,Nashville,TN,37212,"3021 Lealand Ln
Nashville, TN 37212
(36.119187, -86.78732)"
Walk of Fame Park ,Public Gathering,121 Fourth Avenue South,Nashville,TN,37201,"121 Fourth Avenue South
Nashville, TN 37201
(36.160067, -86.776551)"
Justice AA Birch (Jury Duty),Public Gathering,"408 Second Avenue, North",Nashville,TN,37201,"408 Second Avenue, North
Nashville, TN 37201
(36.167927, -86.778835)"
Edmonson Pike Library,Library,5501 Edmondson Pike,Nashville,TN,37211,"5501 Edmondson Pike
Nashville, TN 37211
(36.044746, -86.744004)"
Music City Central,Public Gathering,400 Charlotte Ave,Nashville,TN,37219,"400 Charlotte Ave
Nashville, TN 37219
(36.166068, -86.781392)"
Nashville Talking Library,Library,505 Heritage Drive,Madison,TN,37115,"505 Heritage Drive
Madison, TN 37115
(36.264546, -86.724255)"
Ben West Building,Public Gathering,100 James Robertson Pkwy,Nashville,TN,37219,"100 James Robertson Pkwy
Nashville, TN 37219
(36.167932, -86.778009)"
East Public Health Center,Public Gathering,1015 East Trinity Lane,Nashville,TN,372016,"1015 East Trinity Lane
Nashville, TN 372016
(36.20427, -86.745246)"
Cleveland Community Center,Regional Community Center,610 Vernon Winfrey Avenue,Nashville,TN,37207,"610 Vernon Winfrey Avenue
Nashville, TN 37207
(36.18821, -86.761048)"
Woodbine Public Health Center,Public Gathering,224 Oriel Avenue,Nashville,TN,37210,"224 Oriel Avenue
Nashville, TN 37210
(36.122113, -86.743848)"
Paradise Ridge Community Center,Regional Community Center,3000 Morgan Road,Joelton,TN,37087,"3000 Morgan Road
Joelton, TN 37087
(36.335583, -86.85995)"
Shelby Community Center,Regional Community Center,401 South 20th Street,Nashville,TN,37206,"401 South 20th Street
Nashville, TN 37206
(36.17086, -86.735774)"
South Nashville WIC Nutrition Center,Public Gathering,3718 Nolensville Pike,Nashville,TN,37211,"3718 Nolensville Pike
Nashville, TN 37211
(36.093609, -86.73638)"
Hermitage Police Precinct,Public Gathering,3701 James Kay Lane,Hermitage,TN,37076,"3701 James Kay Lane
Hermitage, TN 37076
(36.177823, -86.615122)"
Centennial Performing Arts Studio,Regional Community Center,2500 West End Avenue,Nashville,TN,37208,"2500 West End Avenue
Nashville, TN 37208
(36.146585, -86.809194)"
Hermitage Library,Library,3700 James Kay Lane,Hermitage,TN,37076,"3700 James Kay Lane
Hermitage, TN 37076
(36.177515, -86.61674)"
North Police Precinct,Public Gathering,"2231 26th Avenue, North",Nashville,TN,37208,"2231 26th Avenue, North
Nashville, TN 37208
(36.189673, -86.817971)"
County Clerk Madison Office,Public Gathering,501 Heritage Dr.,Madison,TN,37115,"501 Heritage Dr.
Madison, TN 37115
(36.264433, -86.724257)"
Water Services Biosolids Building ,Public Gathering,1810 Cement Plant Rd,Nashville,TN,37208,"1810 Cement Plant Rd
Nashville, TN 37208
(36.185056, -86.786214)"
Hermitage Community Center,Regional Community Center,3720 James Kay Lane,Hermitage,TN,37076,"3720 James Kay Lane
Hermitage, TN 37076
(36.177632, -86.616154)"
North Library,Library,1001 Monroe Street,Nashville,TN,37208,"1001 Monroe Street
Nashville, TN 37208
(36.174413, -86.795942)"
Madison Police Precinct - Community Room,Public Gathering,400 Myatt Drive,Madison,TN,37207,"400 Myatt Drive
Madison, TN 37207
(36.272475, -86.68954)"
Warner Park Nature Center,Regional Community Center,7311 Highway 100,Nashville,TN,37221,"7311 Highway 100
Nashville, TN 37221
(36.061346, -86.910068)"
Napier Community Center,Regional Community Center,73 Fairfield St,Nashville,TN,37210,"73 Fairfield St
Nashville, TN 37210
(36.15078, -86.756855)"
Watkins Library,Library,612 17th Avenue North,Nashville,TN,37203,"612 17th Avenue North
Nashville, TN 37203
(36.16275, -86.80084)"
Nashville Main Library,Library,615 Church Street,Nashville,TN,37219,"615 Church Street
Nashville, TN 37219
(36.162414, -86.781895)"
Riverfront Station,Public Gathering,108 1st Ave South,Nashville ,TN,37210,"108 1st Ave South
Nashville, TN 37210
(36.161162, -86.773668)"
Richland Park Library,Library,4711 Charlotte Avenue,Nashville,TN,37209,"4711 Charlotte Avenue
Nashville, TN 37209
(36.152105, -86.84438)"
Two Rivers Mansion ,Public Gathering,3130 McGavock Pike,Nashville,TN,37214,"3130 McGavock Pike
Nashville, TN 37214
(36.188027, -86.675104)"
Elizabeth Community Center,Regional Community Center,1701 Arthur Avenue,Nashville,TN,37208,"1701 Arthur Avenue
Nashville, TN 37208
(36.179199, -86.803434)"
Hadley Park Community Center,Regional Community Center,"1037 28th Avenue, North",Nashville,TN,37208,"1037 28th Avenue, North
Nashville, TN 37208
(36.166565, -86.82044)"
Metro South East,Public Gathering,1417 Murfreesboro Pike,Nashville,TN,37217,"1417 Murfreesboro Pike
Nashville, TN 37217
(36.113416, -86.690175)"
Metro Office Building,Public Gathering,"800 Second Avenue, South",Nashville,TN,37210,"800 Second Avenue, South
Nashville, TN 37210
(36.15322, -86.769563)"
Green Hills Library,Library,3701 Benham Avenue,Nashville,TN,37215,"3701 Benham Avenue
Nashville, TN 37215
(36.109284, -86.808738)"
West Community Center ,Regional Community Center,6105 Morrow Road,Nashville,TN,37209,"6105 Morrow Road
Nashville, TN 37209
(36.163446, -86.863055)"
Old Hickory Community Center,Regional Community Center,1050 Donelson Drive,Old Hickory,TN,37138,"1050 Donelson Drive
Old Hickory, TN 37138
(36.264111, -86.649697)"
Inglewood Library,Library,4312 Gallatin Road,Nashville,TN,37216,"4312 Gallatin Road
Nashville, TN 37216
(36.225814, -86.725447)"
McCabe Community Center,Regional Community Center,101 46th Avenue North,Nashville,TN,37209,"101 46th Avenue North
Nashville, TN 37209
(36.141196, -86.841207)"
Historic Courthouse,Public Gathering,1 Public Square,Nashville,TN,37201,"1 Public Square
Nashville, TN 37201
(36.166448, -86.778832)"
Pruitt Library,Library,117 Charles E. Davis Boulevard,Nashville,TN,37210,"117 Charles E. Davis Boulevard
Nashville, TN 37210
(36.151725, -86.762036)"
Antioch Community Center,Regional Community Center,5023 Blue Hole Road,Antioch,TN,37013,"5023 Blue Hole Road
Antioch, TN 37013
(36.055232, -86.672396)"
Midtown Hills Police Precinct,Public Gathering,1443 12th Avenue South,Nashville,TN,37203,"1443 12th Avenue South
Nashville, TN 37203
(36.136965, -86.788375)"
Edgehill Homes,Public Gathering,1277 12th Ave. South,Nashville,TN,37203,"1277 12th Ave. South
Nashville, TN 37203
(36.14127, -86.787328)"
Easley Center at Rose Park,Regional Community Center,1000 Edgehill Avenue,Nashville,TN,37203,"1000 Edgehill Avenue
Nashville, TN 37203
(36.141827, -86.78309)"
Thompson Lane Library,Library,380 Thompson Lane,Nashville,TN,37211,"380 Thompson Lane
Nashville, TN 37211
(36.110801, -86.743292)"
McFerrin Community Center,Regional Community Center,315 Berry Street,Nashville,TN,37207,"315 Berry Street
Nashville, TN 37207
(36.181022, -86.767331)"
Coleman Community Center ,Regional Community Center,384 Thompson Lane,Nashville,TN,37211,"384 Thompson Lane
Nashville, TN 37211
(36.110867, -86.74434)"
Edgehill Library,Library,1409 12th Avenue South,Nashville,TN,37203,"1409 12th Avenue South
Nashville, TN 37203
(36.139199, -86.787677)"
Centennial Sportsplex,Public Gathering,222 25th Avenue North,Nashville,TN,37203,"222 25th Avenue North
Nashville, TN 37203
(36.149847, -86.810328)"
Watkins Community Center,Regional Community Center,616 17th Avenue North,Nashville,TN,37203,"616 17th Avenue North
Nashville, TN 37203
(36.162212, -86.800477)"
South Police Precinct,Public Gathering,5101 Harding Place,Nashville,TN,37211,"5101 Harding Place
Nashville, TN 37211
(36.089618, -86.688491)"
